ONEWEB-0018             
1 45434U 20020L   25239.24645536  .00000512  00000+0  14092-2 0  9995
2 45434  87.8774  79.6335 0001717  83.9215 276.2109 13.11415072264105
ONEWEB-0083             
1 45435U 20020M   25239.00786596  .00000582  00000+0  16094-2 0  9993
2 45435  87.8784  79.6694 0001880  85.1565 274.9778 13.11300124264117
ONEWEB-0095             
1 45436U 20020N   25238.99906738  .00000349  00000+0  94950-3 0  9992
2 45436  87.8775  79.6923 0001944 109.4214 250.7124 13.11419254264117
ONEWEB-0092             
1 45437U 20020P   25238.97091869 -.00000536  00000+0 -15487-2 0  9998
2 45437  87.8785  79.6880 0001809  93.0442 267.0893 13.11415760264226
ONEWEB-0085             
1 45438U 20020Q   25239.00740466  .00007528  00000+0  21198-1 0  9999
2 45438  87.8783  79.6960 0001668  83.1426 276.9891 13.11381504264112
ONEWEB-0096             
1 45439U 20020R   25238.93279311  .00000504  00000+0  13850-2 0  9991
2 45439  87.8792  79.6770 0001788  79.6084 280.5245 13.11416230264091
ONEWEB-0037             
1 45440U 20020S   25238.98957069 -.00000065  00000+0 -21785-3 0  9992
2 45440  87.8795  79.6309 0001751  88.9998 271.1330 13.11419789264139
ONEWEB-0042             
1 45441U 20020T   25238.92246442  .00000364  00000+0  99016-3 0  9995
2 45441  87.8784  79.6867 0001849  87.3548 272.7792 13.11417594264095
ONEWEB-0098             
1 45442U 20020U   25238.99466637  .00000195  00000+0  51413-3 0  9994
2 45442  87.8784  79.6825 0001452  83.4202 276.7091 13.11419566264080
ONEWEB-0055             
1 45443U 20020V   25238.82511502 -.00000474  00000+0 -13745-2 0  9996
2 45443  87.8783  79.7176 0001646  84.6474 275.4841 13.11417900264033
ONEWEB-0093             
1 45444U 20020W   25239.25844450  .00000078  00000+0  18314-3 0  9992
2 45444  87.8779  79.6160 0002151  82.5334 277.6039 13.11415720264159
ONEWEB-0029             
1 45445U 20020X   25238.81663960 -.00000554  00000+0 -15993-2 0  9999
2 45445  87.8782  79.7169 0001816  82.3892 277.7442 13.11416012264073
ONEWEB-0068             
1 45446U 20020Y   25239.25816545  .00000070  00000+0  16163-3 0  9990
2 45446  87.8782  79.6171 0001843  81.1942 278.9395 13.11413556264079
ONEWEB-0046             
1 45447U 20020Z   25239.24984229  .00000405  00000+0  11072-2 0  9990
2 45447  87.8782  79.6289 0001965  88.0173 272.1180 13.11414799264086
ONEWEB-0063             
1 45448U 20020AA  25238.97346814 -.00000590  00000+0 -16994-2 0  9997
2 45448  87.8787  79.6831 0001983  97.9344 262.2009 13.11416050264132
ONEWEB-0019             
1 45449U 20020AB  25239.25238542  .00000340  00000+0  92307-3 0  9992
2 45449  87.8777  79.6434 0001666  82.9232 277.2085 13.11415432264019
ONEWEB-0094             
1 45450U 20020AC  25238.95028538  .00000012  00000+0 -33276-5 0  9991
2 45450  87.9031  64.3743 0001857  88.6608 271.4736 13.17646398267566
