[{"OBJECT_NAME":"ONEWEB-0018","OBJECT_ID":"2020-020L","EPOCH":"2025-08-27T05:54:53.743104","MEAN_MOTION":13.11415072,"ECCENTRICITY":0.00017173,"INCLINATION":87.8774,"RA_OF_ASC_NODE":79.6335,"ARG_OF_PERICENTER":83.9215,"MEAN_ANOMALY":276.2109,"EPHEMERIS_TYPE":0,"CLASSIFICATION_TYPE":"U","NORAD_CAT_ID":45434,"ELEMENT_SET_NO":999,"REV_AT_EPOCH":26410,"BSTAR":0.0014092452,"MEAN_MOTION_DOT":5.12e-6,"MEAN_MOTION_DDOT":0},{"OBJECT_NAME":"ONEWEB-0083","OBJECT_ID":"2020-020M","EPOCH":"2025-08-27T00:11:19.618944","MEAN_MOTION":13.11300124,"ECCENTRICITY":0.00018809,"INCLINATION":87.8784,"RA_OF_ASC_NODE":79.6694,"ARG_OF_PERICENTER":85.1565,"MEAN_ANOMALY":274.9778,"EPHEMERIS_TYPE":0,"CLASSIFICATION_TYPE":"U","NORAD_CAT_ID":45435,"ELEMENT_SET_NO":999,"REV_AT_EPOCH":26411,"BSTAR":0.0016093712,"MEAN_MOTION_DOT":5.82e-6,"MEAN_MOTION_DDOT":0},{"OBJECT_NAME":"ONEWEB-0095","OBJECT_ID":"2020-020N","EPOCH":"2025-08-26T23:58:39.421632","MEAN_MOTION":13.11419254,"ECCENTRICITY":0.00019446,"INCLINATION":87.8775,"RA_OF_ASC_NODE":79.6923,"ARG_OF_PERICENTER":109.4214,"MEAN_ANOMALY":250.7124,"EPHEMERIS_TYPE":0,"CLASSIFICATION_TYPE":"U","NORAD_CAT_ID":45436,"ELEMENT_SET_NO":999,"REV_AT_EPOCH":26411,"BSTAR":0.00094950265,"MEAN_MOTION_DOT":3.49e-6,"MEAN_MOTION_DDOT":0},{"OBJECT_NAME":"ONEWEB-0092","OBJECT_ID":"2020-020P","EPOCH":"2025-08-26T23:18:07.374816","MEAN_MOTION":13.1141576,"ECCENTRICITY":0.00018098,"INCLINATION":87.8785,"RA_OF_ASC_NODE":79.688,"ARG_OF_PERICENTER":93.0442,"MEAN_ANOMALY":267.0893,"EPHEMERIS_TYPE":0,"CLASSIFICATION_TYPE":"U","NORAD_CAT_ID":45437,"ELEMENT_SET_NO":999,"REV_AT_EPOCH":26422,"BSTAR":-0.0015486715,"MEAN_MOTION_DOT":-5.36e-6,"MEAN_MOTION_DDOT":0},{"OBJECT_NAME":"ONEWEB-0085","OBJECT_ID":"2020-020Q","EPOCH":"2025-08-27T00:10:39.762624","MEAN_MOTION":13.11381504,"ECCENTRICITY":0.00016686,"INCLINATION":87.8783,"RA_OF_ASC_NODE":79.696,"ARG_OF_PERICENTER":83.1426,"MEAN_ANOMALY":276.9891,"EPHEMERIS_TYPE":0,"CLASSIFICATION_TYPE":"U","NORAD_CAT_ID":45438,"ELEMENT_SET_NO":999,"REV_AT_EPOCH":26411,"BSTAR":0.021198016,"MEAN_MOTION_DOT":7.528e-5,"MEAN_MOTION_DDOT":0},{"OBJECT_NAME":"ONEWEB-0096","OBJECT_ID":"2020-020R","EPOCH":"2025-08-26T22:23:13.324704","MEAN_MOTION":13.1141623,"ECCENTRICITY":0.00017888,"INCLINATION":87.8792,"RA_OF_ASC_NODE":79.677,"ARG_OF_PERICENTER":79.6084,"MEAN_ANOMALY":280.5245,"EPHEMERIS_TYPE":0,"CLASSIFICATION_TYPE":"U","NORAD_CAT_ID":45439,"ELEMENT_SET_NO":999,"REV_AT_EPOCH":26409,"BSTAR":0.0013850091,"MEAN_MOTION_DOT":5.04e-6,"MEAN_MOTION_DDOT":0},{"OBJECT_NAME":"ONEWEB-0037","OBJECT_ID":"2020-020S","EPOCH":"2025-08-26T23:44:58.907616","MEAN_MOTION":13.11419789,"ECCENTRICITY":0.0001751,"INCLINATION":87.8795,"RA_OF_ASC_NODE":79.6309,"ARG_OF_PERICENTER":88.9998,"MEAN_ANOMALY":271.133,"EPHEMERIS_TYPE":0,"CLASSIFICATION_TYPE":"U","NORAD_CAT_ID":45440,"ELEMENT_SET_NO":999,"REV_AT_EPOCH":26413,"BSTAR":-0.00021785238,"MEAN_MOTION_DOT":-6.5e-7,"MEAN_MOTION_DDOT":0},{"OBJECT_NAME":"ONEWEB-0042","OBJECT_ID":"2020-020T","EPOCH":"2025-08-26T22:08:20.925888","MEAN_MOTION":13.11417594,"ECCENTRICITY":0.00018496,"INCLINATION":87.8784,"RA_OF_ASC_NODE":79.6867,"ARG_OF_PERICENTER":87.3548,"MEAN_ANOMALY":272.7792,"EPHEMERIS_TYPE":0,"CLASSIFICATION_TYPE":"U","NORAD_CAT_ID":45441,"ELEMENT_SET_NO":999,"REV_AT_EPOCH":26409,"BSTAR":0.00099016196,"MEAN_MOTION_DOT":3.64e-6,"MEAN_MOTION_DDOT":0},{"OBJECT_NAME":"ONEWEB-0098","OBJECT_ID":"2020-020U","EPOCH":"2025-08-26T23:52:19.174368","MEAN_MOTION":13.11419566,"ECCENTRICITY":0.00014524,"INCLINATION":87.8784,"RA_OF_ASC_NODE":79.6825,"ARG_OF_PERICENTER":83.4202,"MEAN_ANOMALY":276.7091,"EPHEMERIS_TYPE":0,"CLASSIFICATION_TYPE":"U","NORAD_CAT_ID":45442,"ELEMENT_SET_NO":999,"REV_AT_EPOCH":26408,"BSTAR":0.00051412655,"MEAN_MOTION_DOT":1.95e-6,"MEAN_MOTION_DDOT":0},{"OBJECT_NAME":"ONEWEB-0055","OBJECT_ID":"2020-020V","EPOCH":"2025-08-26T19:48:09.937728","MEAN_MOTION":13.114179,"ECCENTRICITY":0.0001646,"INCLINATION":87.8783,"RA_OF_ASC_NODE":79.7176,"ARG_OF_PERICENTER":84.6474,"MEAN_ANOMALY":275.4841,"EPHEMERIS_TYPE":0,"CLASSIFICATION_TYPE":"U","NORAD_CAT_ID":45443,"ELEMENT_SET_NO":999,"REV_AT_EPOCH":26403,"BSTAR":-0.0013745266,"MEAN_MOTION_DOT":-4.74e-6,"MEAN_MOTION_DDOT":0},{"OBJECT_NAME":"ONEWEB-0093","OBJECT_ID":"2020-020W","EPOCH":"2025-08-27T06:12:09.604800","MEAN_MOTION":13.1141572,"ECCENTRICITY":0.00021518,"INCLINATION":87.8779,"RA_OF_ASC_NODE":79.616,"ARG_OF_PERICENTER":82.5334,"MEAN_ANOMALY":277.6039,"EPHEMERIS_TYPE":0,"CLASSIFICATION_TYPE":"U","NORAD_CAT_ID":45444,"ELEMENT_SET_NO":999,"REV_AT_EPOCH":26415,"BSTAR":0.00018313601,"MEAN_MOTION_DOT":7.8e-7,"MEAN_MOTION_DDOT":0},{"OBJECT_NAME":"ONEWEB-0029","OBJECT_ID":"2020-020X","EPOCH":"2025-08-26T19:35:57.661440","MEAN_MOTION":13.11416012,"ECCENTRICITY":0.00018163,"INCLINATION":87.8782,"RA_OF_ASC_NODE":79.7169,"ARG_OF_PERICENTER":82.3892,"MEAN_ANOMALY":277.7442,"EPHEMERIS_TYPE":0,"CLASSIFICATION_TYPE":"U","NORAD_CAT_ID":45445,"ELEMENT_SET_NO":999,"REV_AT_EPOCH":26407,"BSTAR":-0.0015993291,"MEAN_MOTION_DOT":-5.54e-6,"MEAN_MOTION_DDOT":0},{"OBJECT_NAME":"ONEWEB-0068","OBJECT_ID":"2020-020Y","EPOCH":"2025-08-27T06:11:45.494880","MEAN_MOTION":13.11413556,"ECCENTRICITY":0.00018431,"INCLINATION":87.8782,"RA_OF_ASC_NODE":79.6171,"ARG_OF_PERICENTER":81.1942,"MEAN_ANOMALY":278.9395,"EPHEMERIS_TYPE":0,"CLASSIFICATION_TYPE":"U","NORAD_CAT_ID":45446,"ELEMENT_SET_NO":999,"REV_AT_EPOCH":26407,"BSTAR":0.00016163241,"MEAN_MOTION_DOT":7.0e-7,"MEAN_MOTION_DDOT":0},{"OBJECT_NAME":"ONEWEB-0046","OBJECT_ID":"2020-020Z","EPOCH":"2025-08-27T05:59:46.373856","MEAN_MOTION":13.11414799,"ECCENTRICITY":0.00019651,"INCLINATION":87.8782,"RA_OF_ASC_NODE":79.6289,"ARG_OF_PERICENTER":88.0173,"MEAN_ANOMALY":272.118,"EPHEMERIS_TYPE":0,"CLASSIFICATION_TYPE":"U","NORAD_CAT_ID":45447,"ELEMENT_SET_NO":999,"REV_AT_EPOCH":26408,"BSTAR":0.0011071702,"MEAN_MOTION_DOT":4.05e-6,"MEAN_MOTION_DDOT":0},{"OBJECT_NAME":"ONEWEB-0063","OBJECT_ID":"2020-020AA","EPOCH":"2025-08-26T23:21:47.647296","MEAN_MOTION":13.1141605,"ECCENTRICITY":0.00019835,"INCLINATION":87.8787,"RA_OF_ASC_NODE":79.6831,"ARG_OF_PERICENTER":97.9344,"MEAN_ANOMALY":262.2009,"EPHEMERIS_TYPE":0,"CLASSIFICATION_TYPE":"U","NORAD_CAT_ID":45448,"ELEMENT_SET_NO":999,"REV_AT_EPOCH":26413,"BSTAR":-0.0016993694,"MEAN_MOTION_DOT":-5.9e-6,"MEAN_MOTION_DDOT":0},{"OBJECT_NAME":"ONEWEB-0019","OBJECT_ID":"2020-020AB","EPOCH":"2025-08-27T06:03:26.100288","MEAN_MOTION":13.11415432,"ECCENTRICITY":0.00016667,"INCLINATION":87.8777,"RA_OF_ASC_NODE":79.6434,"ARG_OF_PERICENTER":82.9232,"MEAN_ANOMALY":277.2085,"EPHEMERIS_TYPE":0,"CLASSIFICATION_TYPE":"U","NORAD_CAT_ID":45449,"ELEMENT_SET_NO":999,"REV_AT_EPOCH":26401,"BSTAR":0.00092307004,"MEAN_MOTION_DOT":3.4e-6,"MEAN_MOTION_DDOT":0},{"OBJECT_NAME":"ONEWEB-0094","OBJECT_ID":"2020-020AC","EPOCH":"2025-08-26T22:48:24.656832","MEAN_MOTION":13.17646398,"ECCENTRICITY":0.00018571,"INCLINATION":87.9031,"RA_OF_ASC_NODE":64.3743,"ARG_OF_PERICENTER":88.6608,"MEAN_ANOMALY":271.4736,"EPHEMERIS_TYPE":0,"CLASSIFICATION_TYPE":"U","NORAD_CAT_ID":45450,"ELEMENT_SET_NO":999,"REV_AT_EPOCH":26756,"BSTAR":-3.327599e-6,"MEAN_MOTION_DOT":1.2e-7,"MEAN_MOTION_DDOT":0}]
